OBJECT_NAME,OBJECT_ID,EPOCH,MEAN_MOTION,ECCENTRICITY,INCLINATION,RA_OF_ASC_NODE,ARG_OF_PERICENTER,MEAN_ANOMALY,EPHEMERIS_TYPE,CLASSIFICATION_TYPE,NORAD_CAT_ID,ELEMENT_SET_NO,REV_AT_EPOCH,BSTAR,MEAN_MOTION_DOT,MEAN_MOTION_DDOT
GSAT-17,2017-040B,2026-06-10T12:01:31.109664,1.00271086,.00016156,0.1091,88.1301,210.8057,233.8159,0,U,42815,999,3272,0,-.24E-5,0
INTELSAT 35E (IS-35E),2017-041A,2026-06-10T11:25:02.107776,1.00271241,.00016632,0.0045,72.9661,5.0881,317.5690,0,U,42818,999,3274,0,-.22E-5,0
COSMOS 2520,2017-046A,2026-06-08T15:18:27.269568,1.00270113,.00011695,0.0442,86.9350,55.5058,29.2057,0,U,42907,999,3231,0,.153E-5,0
TDRS 13,2017-047A,2026-06-10T10:53:10.190688,1.00271734,.00145333,3.4498,2.5513,105.7433,302.3758,0,U,42915,999,3228,0,-.85E-6,0
QZS-3 (MICHIBIKI-3),2017-048A,2026-06-10T12:07:38.682912,1.00268300,.00025894,0.0569,174.0853,274.1258,119.5722,0,U,42917,999,3219,0,-.331E-5,0
AMAZONAS 5,2017-053A,2026-06-09T07:54:55.355040,1.00270254,.00024128,0.0312,323.9850,64.7103,286.7531,0,U,42934,999,3196,0,-.266E-5,0
INTELSAT 37E (IS-37E),2017-059A,2026-06-10T07:36:38.848320,1.00270044,.0002381,0.0043,78.2474,24.2615,252.3325,0,U,42950,999,3199,0,-.123E-5,0
BSAT-4A,2017-059B,2026-06-09T00:10:15.784896,1.00272912,.0004164,0.0365,6.7991,58.5529,304.4340,0,U,42951,999,3171,0,-.334E-5,0
QZS-4 (MICHIBIKI-4),2017-062A,2026-06-10T08:46:31.970784,1.00252759,.07451425,40.1123,343.5704,271.6178,272.7130,0,U,42965,999,3173,0,-.314E-5,0
SES-11 (ECHOSTAR 105),2017-063A,2026-06-09T16:15:41.654016,1.00270770,.00026793,0.0151,352.2876,98.2971,306.4353,0,U,42967,999,3164,0,-.72E-6,0
KOREASAT 5A,2017-067A,2026-06-10T10:24:23.109984,1.00270314,.0000507,0.0084,326.0092,126.1368,75.9019,0,U,42984,999,3146,0,-.341E-5,0
ALCOMSAT 1,2017-078A,2026-06-10T11:27:39.355776,1.00272182,.00022747,0.0389,74.4234,1.0283,330.5123,0,U,43039,999,3122,0,-.168E-5,0
SBIRS GEO-3 (USA 282),2018-009A,2026-06-10T12:24:38.625408,1.00272026,.00019589,2.1789,11.7602,62.5093,211.3747,0,U,43162,999,3077,0,.144E-5,0
AL YAH 3,2018-012A,2026-06-10T08:03:44.156736,1.00270951,.00040262,1.5332,83.1895,356.3531,279.9963,0,U,43174,999,3077,0,-.138E-5,0
SES-14,2018-012B,2026-06-09T11:24:01.053216,1.00270313,.00010572,0.0220,31.0141,53.8990,296.4420,0,U,43175,999,694,0,-.261E-5,0
GOES 17,2018-022A,2026-06-10T12:51:56.930112,1.00271146,.00005236,0.9194,85.8321,20.0838,256.4799,0,U,43226,999,3035,0,-.165E-5,0
HISPASAT 30W-6,2018-023A,2026-06-09T04:38:24.091296,1.00270107,.0006065,0.0466,43.0702,24.4046,229.6971,0,U,43228,999,3032,0,-.199E-5,0
SUPERBIRD-B3,2018-033A,2026-06-10T12:21:01.644768,1.00270640,.00012306,0.0145,303.6867,160.7888,141.6587,0,U,43271,999,2999,0,-.75E-6,0
HYLAS 4,2018-033B,2026-06-09T11:28:00.669792,1.00269264,.00010038,0.0194,57.3369,29.6517,309.4007,0,U,43272,999,2998,0,-.216E-5,0
IRNSS-1I,2018-035A,2026-06-09T20:26:22.280064,1.00270544,.00178385,28.7370,74.3113,182.3918,2.9871,0,U,43286,999,3000,0,.89E-6,0
APSTAR-6C,2018-041A,2026-06-10T12:13:02.410752,1.00272120,.0001144,0.0242,336.9769,13.4178,225.7512,0,U,43450,999,2974,0,-.3E-5,0
BANGABANDHUSAT-1,2018-044A,2026-06-10T10:26:07.941696,1.00268064,.0001713,0.0173,350.4797,92.8633,91.0766,0,U,43463,999,2964,0,0,0
SES-12,2018-049A,2026-06-09T20:12:21.575232,1.00269142,.0000922,0.0287,45.0830,240.6472,10.5699,0,U,43488,999,2934,0,-.252E-5,0
FENGYUN 2H,2018-050A,2026-06-10T11:57:31.493088,1.00270758,.00016849,3.0128,79.1544,128.6364,309.8929,0,U,43491,999,2937,0,-.114E-5,0
BEIDOU-2 IGSO-7,2018-057A,2026-06-10T10:23:30.693696,1.00253264,.01048788,55.1935,163.1168,237.9408,124.0886,0,U,43539,999,2906,0,.4E-6,0
TELSTAR 19V,2018-059A,2026-06-09T01:05:04.975008,1.00255741,.00032288,0.0357,175.1217,305.1580,90.4046,0,U,43562,999,2906,0,-.262E-5,0
TELKOM 4 (MERAH PUTIH),2018-064A,2026-06-10T14:49:52.544928,1.00267811,.00013028,0.0184,358.1257,117.4728,113.8406,0,U,43587,999,2881,0,0,0
TELSTAR 18V,2018-069A,2026-06-10T12:14:09.802752,1.00269964,.0001744,0.0162,294.2125,143.0818,143.1297,0,U,43611,999,2857,0,-.276E-5,0
AZERSPACE 2 (IS-38),2018-074A,2026-06-10T13:30:18.257184,1.00271783,.00012369,0.0027,66.4415,15.4806,64.6887,0,U,43632,999,2838,0,.154E-5,0
